{"difficulty": "Uber","date": "2023-06-24","weapon": "TwoHandedMace","phase1": "Lieutenants","phase2": "Conduits","trap1": "BladeSentries","trap2": "NoTrap","section1layout": "arrow_down","section2layout": "triple_2","section3layout": "walker","rooms": [{"name": "estate path","areacode": "oh_straight","id": "1","x": "38","y": "128","dangerous": "false","contents": ["silver-key","Floor puzzle"],"content_directions": [],"exits": {"NE": "2"}},{"name": "domain walkways","areacode": "dg_branch_door","id": "2","x": "106","y": "172","dangerous": "false","contents": ["golden-door"],"content_directions": [],"exits": {"C": "3","N": "3","NE": "4"},"secret_passage": "Statue"},{"name": "mansion annex","areacode": "eh_end_bottleneck","id": "3","x": "106","y": "84","dangerous": "false","contents": ["golden-key"],"content_directions": [],"exits": {"C": "2"},"secret_passage": "Statue"},{"name": "sanitorium passage","areacode": "p_straight_bottleneck","id": "4","x": "175","y": "128","dangerous": "false","contents": ["silver-key","darkshrine"],"content_directions": [],"exits": {"NE": "5"}},{"name": "aspirant's trial","areacode": "","id": "5","x": "244","y": "128","dangerous": "false","contents": [],"content_directions": [],"exits": {"NW": "6"}},{"name": "estate path","areacode": "oh_straight","id": "6","x": "311","y": "128","dangerous": "false","contents": ["darkshrine"],"content_directions": [],"exits": {"NE": "7"}},{"name": "basilica halls","areacode": "rt_branch","id": "7","x": "379","y": "128","dangerous": "false","contents": ["silver-key","darkshrine"],"content_directions": [],"exits": {"NE": "8","NW": "9"}},{"name": "domain enclosure","areacode": "","id": "8","x": "414","y": "216","dangerous": "false","contents": ["argus"],"content_directions": [],"exits": {}},{"name": "sanitorium passage","areacode": "p_straight_bottleneck","id": "9","x": "450","y": "84","dangerous": "false","contents": ["silver-door","Trap gauntlet"],"content_directions": [],"exits": {"NE": "10"}},{"name": "aspirant's trial","areacode": "","id": "10","x": "518","y": "128","dangerous": "false","contents": [],"content_directions": [],"exits": {"NW": "11"}},{"name": "estate walkways","areacode": "","id": "11","x": "587","y": "128","dangerous": "false","contents": [],"content_directions": [],"exits": {"NE": "12","NW": "13"}},{"name": "sanitorium annex","areacode": "","id": "12","x": "621","y": "216","dangerous": "false","contents": ["silver-door"],"content_directions": [],"exits": {}},{"name": "sepulchre halls","areacode": "c_branch_bottleneck_1","id": "13","x": "655","y": "84","dangerous": "false","contents": ["darkshrine"],"content_directions": [],"exits": {"NE": "15","NW": "14"}},{"name": "sanitorium passage","areacode": "p_straight_bottleneck","id": "14","x": "726","y": "84","dangerous": "false","contents": ["Trap gauntlet"],"content_directions": [],"exits": {"NE": "16"}},{"name": "estate path","areacode": "oh_straight_bottleneck","id": "15","x": "726","y": "172","dangerous": "false","contents": ["silver-door","Escort gauntlet"],"content_directions": [],"exits": {"NE": "16"}},{"name": "aspirant's trial","areacode": "","id": "16","x": "793","y": "128","dangerous": "false","contents": [],"content_directions": [],"exits": {}}]}